{
  "type": "FeatureCollection",
  "features": [
    {
      "type": "Feature",
      "properties": {
        "norad_id": 29975,
        "name": "FENGYUN 1C DEB",
        "group": "fengyun-1c-debris",
        "lat": -15.695400748843163,
        "lon": 28.984363042807725,
        "alt_km": 835.9895031088818,
        "timestamp": "2025-12-11T07:02:24.003097+00:00",
        "meta_object_name": "FENGYUN 1C DEB",
        "meta_object_id": "1999-025KZ",
        "meta_epoch": "2025-12-10T21:39:29.465568",
        "meta_mean_motion": 13.98025154,
        "meta_eccentricity": 0.0113678,
        "meta_inclination": 99.3399,
        "meta_ra_of_asc_node": 25.9361,
        "meta_arg_of_pericenter": 18.7386,
        "meta_mean_anomaly": 159.8411,
        "meta_ephemeris_type": 0,
        "meta_classification_type": "U",
        "meta_norad_cat_id": 29975,
        "meta_element_set_no": 999,
        "meta_rev_at_epoch": 96411,
        "meta_bstar": 7.3862975e-05,
        "meta_mean_motion_dot": 6.5e-07,
        "meta_mean_motion_ddot": 0,
        "tle_line1": "1 29975U 99025KZ  25344.90242437  .00000065  00000+0  73863-4 0  9997",
        "tle_line2": "2 29975  99.3399  25.9361 0113678  18.7386 159.8411 13.98025154964119"
      },
      "geometry": {
        "type": "Point",
        "coordinates": [
          28.984363042807725,
          -15.695400748843163
        ]
      }
    },
    {
      "type": "Feature",
      "properties": {
        "norad_id": 29976,
        "name": "FENGYUN 1C DEB",
        "group": "fengyun-1c-debris",
        "lat": 21.562741258749302,
        "lon": 166.19812133013374,
        "alt_km": 879.6089183307658,
        "timestamp": "2025-12-11T07:02:24.003107+00:00",
        "meta_object_name": "FENGYUN 1C DEB",
        "meta_object_id": "1999-025LA",
        "meta_epoch": "2025-12-10T12:00:05.534784",
        "meta_mean_motion": 13.98104873,
        "meta_eccentricity": 0.0267529,
        "meta_inclination": 98.9178,
        "meta_ra_of_asc_node": 341.869,
        "meta_arg_of_pericenter": 245.7391,
        "meta_mean_anomaly": 244.8935,
        "meta_ephemeris_type": 0,
        "meta_classification_type": "U",
        "meta_norad_cat_id": 29976,
        "meta_element_set_no": 999,
        "meta_rev_at_epoch": 96305,
        "meta_bstar": 0.00033071959,
        "meta_mean_motion_dot": 5.93e-06,
        "meta_mean_motion_ddot": 0,
        "tle_line1": "1 29976U 99025LA  25344.50006406  .00000593  00000+0  33072-3 0  9991",
        "tle_line2": "2 29976  98.9178 341.8690 0267529 245.7391 244.8935 13.98104873963052"
      },
      "geometry": {
        "type": "Point",
        "coordinates": [
          166.19812133013374,
          21.562741258749302
        ]
      }
    },
    {
      "type": "Feature",
      "properties": {
        "norad_id": 29977,
        "name": "FENGYUN 1C DEB",
        "group": "fengyun-1c-debris",
        "lat": 55.99157436640574,
        "lon": -165.1971275677777,
        "alt_km": 955.7942687572704,
        "timestamp": "2025-12-11T07:02:24.003117+00:00",
        "meta_object_name": "FENGYUN 1C DEB",
        "meta_object_id": "1999-025LB",
        "meta_epoch": "2025-12-10T13:48:59.398272",
        "meta_mean_motion": 14.05070402,
        "meta_eccentricity": 0.0128498,
        "meta_inclination": 98.3964,
        "meta_ra_of_asc_node": 206.7826,
        "meta_arg_of_pericenter": 263.1189,
        "meta_mean_anomaly": 125.2512,
        "meta_ephemeris_type": 0,
        "meta_classification_type": "U",
        "meta_norad_cat_id": 29977,
        "meta_element_set_no": 999,
        "meta_rev_at_epoch": 96330,
        "meta_bstar": 0.0019594,
        "meta_mean_motion_dot": 3.361e-05,
        "meta_mean_motion_ddot": 0,
        "tle_line1": "1 29977U 99025LB  25344.57568748  .00003361  00000+0  19594-2 0  9999",
        "tle_line2": "2 29977  98.3964 206.7826 0128498 263.1189 125.2512 14.05070402963300"
      },
      "geometry": {
        "type": "Point",
        "coordinates": [
          -165.1971275677777,
          55.99157436640574
        ]
      }
    },
    {
      "type": "Feature",
      "properties": {
        "norad_id": 29978,
        "name": "FENGYUN 1C DEB",
        "group": "fengyun-1c-debris",
        "lat": -8.338923327697422,
        "lon": -145.57609381147196,
        "alt_km": 949.1795872310322,
        "timestamp": "2025-12-11T07:02:24.003127+00:00",
        "meta_object_name": "FENGYUN 1C DEB",
        "meta_object_id": "1999-025LC",
        "meta_epoch": "2025-12-10T22:22:14.736000",
        "meta_mean_motion": 13.95906588,
        "meta_eccentricity": 0.0076729,
        "meta_inclination": 99.0616,
        "meta_ra_of_asc_node": 35.409,
        "meta_arg_of_pericenter": 57.1735,
        "meta_mean_anomaly": 116.2727,
        "meta_ephemeris_type": 0,
        "meta_classification_type": "U",
        "meta_norad_cat_id": 29978,
        "meta_element_set_no": 999,
        "meta_rev_at_epoch": 96291,
        "meta_bstar": 6.43678e-07,
        "meta_mean_motion_dot": -4.2e-07,
        "meta_mean_motion_ddot": 0,
        "tle_line1": "1 29978U 99025LC  25344.93211500 -.00000042  00000+0  64368-6 0  9998",
        "tle_line2": "2 29978  99.0616  35.4090 0076729  57.1735 116.2727 13.95906588962915"
      },
      "geometry": {
        "type": "Point",
        "coordinates": [
          -145.57609381147196,
          -8.338923327697422
        ]
      }
    },
    {
      "type": "Feature",
      "properties": {
        "norad_id": 29979,
        "name": "FENGYUN 1C DEB",
        "group": "fengyun-1c-debris",
        "lat": 45.15616943113921,
        "lon": 0.053827857862311874,
        "alt_km": 840.8996996918822,
        "timestamp": "2025-12-11T07:02:24.003138+00:00",
        "meta_object_name": "FENGYUN 1C DEB",
        "meta_object_id": "1999-025LD",
        "meta_epoch": "2025-12-10T19:52:20.902944",
        "meta_mean_motion": 14.25956902,
        "meta_eccentricity": 0.01074978,
        "meta_inclination": 98.3705,
        "meta_ra_of_asc_node": 8.1226,
        "meta_arg_of_pericenter": 168.5416,
        "meta_mean_anomaly": 11.0756,
        "meta_ephemeris_type": 0,
        "meta_classification_type": "U",
        "meta_norad_cat_id": 29979,
        "meta_element_set_no": 999,
        "meta_rev_at_epoch": 98046,
        "meta_bstar": 0.00063130399,
        "meta_mean_motion_dot": 1.559e-05,
        "meta_mean_motion_ddot": 0,
        "tle_line1": "1 29979U 99025LD  25344.82801971  .00001559  00000+0  63130-3 0  9990",
        "tle_line2": "2 29979  98.3705   8.1226 0107497 168.5416  11.0756 14.25956902980468"
      },
      "geometry": {
        "type": "Point",
        "coordinates": [
          0.053827857862311874,
          45.15616943113921
        ]
      }
    },
    {
      "type": "Feature",
      "properties": {
        "norad_id": 29980,
        "name": "FENGYUN 1C DEB",
        "group": "fengyun-1c-debris",
        "lat": 75.58651776965827,
        "lon": 118.69376678788016,
        "alt_km": 927.3960572143433,
        "timestamp": "2025-12-11T07:02:24.003147+00:00",
        "meta_object_name": "FENGYUN 1C DEB",
        "meta_object_id": "1999-025LE",
        "meta_epoch": "2025-12-10T17:04:45.659712",
        "meta_mean_motion": 14.06312603,
        "meta_eccentricity": 0.00868382,
        "meta_inclination": 98.5513,
        "meta_ra_of_asc_node": 153.9779,
        "meta_arg_of_pericenter": 253.6175,
        "meta_mean_anomaly": 121.5624,
        "meta_ephemeris_type": 0,
        "meta_classification_type": "U",
        "meta_norad_cat_id": 29980,
        "meta_element_set_no": 999,
        "meta_rev_at_epoch": 96964,
        "meta_bstar": 0.00029356991,
        "meta_mean_motion_dot": 4.59e-06,
        "meta_mean_motion_ddot": 0,
        "tle_line1": "1 29980U 99025LE  25344.71163958  .00000459  00000+0  29357-3 0  9997",
        "tle_line2": "2 29980  98.5513 153.9779 0086838 253.6175 121.5624 14.06312603969645"
      },
      "geometry": {
        "type": "Point",
        "coordinates": [
          118.69376678788016,
          75.58651776965827
        ]
      }
    },
    {
      "type": "Feature",
      "properties": {
        "norad_id": 29982,
        "name": "FENGYUN 1C DEB",
        "group": "fengyun-1c-debris",
        "lat": 12.061947835286238,
        "lon": -11.61761943982306,
        "alt_km": 721.0650569507534,
        "timestamp": "2025-12-11T07:02:24.003158+00:00",
        "meta_object_name": "FENGYUN 1C DEB",
        "meta_object_id": "1999-025LG",
        "meta_epoch": "2025-12-10T22:48:53.400384",
        "meta_mean_motion": 14.66856641,
        "meta_eccentricity": 0.0121962,
        "meta_inclination": 99.4018,
        "meta_ra_of_asc_node": 165.9608,
        "meta_arg_of_pericenter": 293.7722,
        "meta_mean_anomaly": 226.3031,
        "meta_ephemeris_type": 0,
        "meta_classification_type": "U",
        "meta_norad_cat_id": 29982,
        "meta_element_set_no": 999,
        "meta_rev_at_epoch": 257,
        "meta_bstar": 0.0010335178,
        "meta_mean_motion_dot": 6.387e-05,
        "meta_mean_motion_ddot": 0,
        "tle_line1": "1 29982U 99025LG  25344.95061806  .00006387  00000+0  10335-2 0  9995",
        "tle_line2": "2 29982  99.4018 165.9608 0121962 293.7722 226.3031 14.66856641  2579"
      },
      "geometry": {
        "type": "Point",
        "coordinates": [
          -11.61761943982306,
          12.061947835286238
        ]
      }
    }
  ]
}